METOP-C                 
1 43689U 18087A   26061.92330760  .00000137  00000+0  82723-4 0  9995
2 43689  98.6780 123.4108 0002157 109.3746 250.7665 14.21494306379738
GEO-KOMPSAT-2A          
1 43823U 18100A   26060.97179095 -.00000362  00000+0  00000+0 0  9991
2 43823   0.0180  67.6811 0001336 333.4250 236.7399  1.00270368 26557
METEOR-M2 2             
1 44387U 19038A   26061.96102705 -.00000127  00000+0 -35270-4 0  9994
2 44387  98.9070  47.7197 0001239  15.3939 344.7277 14.24329843346176
ARKTIKA-M 1             
1 47719U 21016A   26061.82287547 -.00000108  00000+0  00000+0 0  9994
2 47719  63.2036  72.8571 7242814 269.4536  15.2019  2.00620868 36653
FENGYUN 3E              
1 49008U 21062A   26062.00764546 -.00000176  00000+0 -62211-4 0  9991
2 49008  98.7506  66.5959 0002465  54.3340 305.8065 14.19891825241512
GOES 18                 
1 51850U 22021A   26061.77267117  .00000080  00000+0  00000+0 0  9995
2 51850   0.0258  75.1977 0000548 314.4181 272.0750  1.00271247  5520
NOAA 21 (JPSS-2)        
1 54234U 22150A   26061.95562433  .00000106  00000+0  70893-4 0  9997
2 54234  98.7548   2.2989 0002495 118.5628 241.5799 14.19550036171473
METEOSAT-12 (MTG-I1)    
1 54743U 22170C   26061.87332847 -.00000023  00000+0  00000+0 0  9996
2 54743   0.7437  28.9235 0001922 281.4486 164.3789  1.00274555 11911
TIANMU-1 03             
1 55973U 23039A   26061.94505465  .00020318  00000+0  44871-3 0  9999
2 55973  97.5164 232.0376 0003950 120.3562 239.8077 15.43893106164425
TIANMU-1 04             
1 55974U 23039B   26061.97029516  .00020417  00000+0  44469-3 0  9994
2 55974  97.5096 231.2257 0004633 117.2839 242.8882 15.44299484164439
TIANMU-1 05             
1 55975U 23039C   26061.92138081  .00019215  00000+0  42535-3 0  9994
2 55975  97.5143 231.6668 0003731 138.8403 221.3127 15.43834741164408
TIANMU-1 06             
1 55976U 23039D   26061.97022767  .00019795  00000+0  43086-3 0  9998
2 55976  97.5153 232.2516 0004036 133.7889 226.3693 15.44329158164438
FENGYUN 3G              
1 56232U 23055A   26061.88350088  .00035159  00000+0  53456-3 0  9996
2 56232  49.9932 174.1446 0010688 342.8456  17.2149 15.54099829163486
METEOR-M2 3             
1 57166U 23091A   26061.93184440  .00000037  00000+0  34902-4 0  9999
2 57166  98.6229 119.0191 0005017 114.5694 245.6008 14.24036855139396
TIANMU-1 07             
1 57399U 23101A   26061.90992288  .00008906  00000+0  31691-3 0  9997
2 57399  97.2740 115.0099 0004704 147.2304 212.9229 15.29183200145407
TIANMU-1 08             
1 57400U 23101B   26061.81455363  .00000469  00000+0  19083-4 0  9996
2 57400  97.2730 114.6953 0006290 145.3494 214.8157 15.29213455145388
TIANMU-1 09             
1 57401U 23101C   26060.81433519  .00000691  00000+0  26964-4 0  9998
2 57401  97.2691 113.1975 0005114 156.2312 203.9165 15.29179768145237
