[{"OBJECT_NAME":"METOP-C","OBJECT_ID":"2018-087A","EPOCH":"2026-03-02T22:09:33.776640","MEAN_MOTION":14.21494306,"ECCENTRICITY":0.0002157,"INCLINATION":98.678,"RA_OF_ASC_NODE":123.4108,"ARG_OF_PERICENTER":109.3746,"MEAN_ANOMALY":250.7665,"EPHEMERIS_TYPE":0,"CLASSIFICATION_TYPE":"U","NORAD_CAT_ID":43689,"ELEMENT_SET_NO":999,"REV_AT_EPOCH":37973,"BSTAR":8.2723294e-5,"MEAN_MOTION_DOT":1.37e-6,"MEAN_MOTION_DDOT":0},{"OBJECT_NAME":"GEO-KOMPSAT-2A","OBJECT_ID":"2018-100A","EPOCH":"2026-03-01T23:19:22.738080","MEAN_MOTION":1.00270368,"ECCENTRICITY":0.0001336,"INCLINATION":0.018,"RA_OF_ASC_NODE":67.6811,"ARG_OF_PERICENTER":333.425,"MEAN_ANOMALY":236.7399,"EPHEMERIS_TYPE":0,"CLASSIFICATION_TYPE":"U","NORAD_CAT_ID":43823,"ELEMENT_SET_NO":999,"REV_AT_EPOCH":2655,"BSTAR":0,"MEAN_MOTION_DOT":-3.62e-6,"MEAN_MOTION_DDOT":0},{"OBJECT_NAME":"METEOR-M2 2","OBJECT_ID":"2019-038A","EPOCH":"2026-03-02T23:03:52.737120","MEAN_MOTION":14.24329843,"ECCENTRICITY":0.0001239,"INCLINATION":98.907,"RA_OF_ASC_NODE":47.7197,"ARG_OF_PERICENTER":15.3939,"MEAN_ANOMALY":344.7277,"EPHEMERIS_TYPE":0,"CLASSIFICATION_TYPE":"U","NORAD_CAT_ID":44387,"ELEMENT_SET_NO":999,"REV_AT_EPOCH":34617,"BSTAR":-3.526962e-5,"MEAN_MOTION_DOT":-1.27e-6,"MEAN_MOTION_DDOT":0},{"OBJECT_NAME":"ARKTIKA-M 1","OBJECT_ID":"2021-016A","EPOCH":"2026-03-02T19:44:56.440608","MEAN_MOTION":2.00620868,"ECCENTRICITY":0.72428147,"INCLINATION":63.2036,"RA_OF_ASC_NODE":72.8571,"ARG_OF_PERICENTER":269.4536,"MEAN_ANOMALY":15.2019,"EPHEMERIS_TYPE":0,"CLASSIFICATION_TYPE":"U","NORAD_CAT_ID":47719,"ELEMENT_SET_NO":999,"REV_AT_EPOCH":3665,"BSTAR":0,"MEAN_MOTION_DOT":-1.08e-6,"MEAN_MOTION_DDOT":0},{"OBJECT_NAME":"FENGYUN 3E","OBJECT_ID":"2021-062A","EPOCH":"2026-03-03T00:11:00.567744","MEAN_MOTION":14.19891825,"ECCENTRICITY":0.00024652,"INCLINATION":98.7506,"RA_OF_ASC_NODE":66.5959,"ARG_OF_PERICENTER":54.334,"MEAN_ANOMALY":305.8065,"EPHEMERIS_TYPE":0,"CLASSIFICATION_TYPE":"U","NORAD_CAT_ID":49008,"ELEMENT_SET_NO":999,"REV_AT_EPOCH":24151,"BSTAR":-6.2211282e-5,"MEAN_MOTION_DOT":-1.76e-6,"MEAN_MOTION_DDOT":0},{"OBJECT_NAME":"GOES 18","OBJECT_ID":"2022-021A","EPOCH":"2026-03-02T18:32:38.789088","MEAN_MOTION":1.00271247,"ECCENTRICITY":5.481e-5,"INCLINATION":0.0258,"RA_OF_ASC_NODE":75.1977,"ARG_OF_PERICENTER":314.4181,"MEAN_ANOMALY":272.075,"EPHEMERIS_TYPE":0,"CLASSIFICATION_TYPE":"U","NORAD_CAT_ID":51850,"ELEMENT_SET_NO":999,"REV_AT_EPOCH":552,"BSTAR":0,"MEAN_MOTION_DOT":8.0e-7,"MEAN_MOTION_DDOT":0},{"OBJECT_NAME":"NOAA 21 (JPSS-2)","OBJECT_ID":"2022-150A","EPOCH":"2026-03-02T22:56:05.942112","MEAN_MOTION":14.19550036,"ECCENTRICITY":0.00024952,"INCLINATION":98.7548,"RA_OF_ASC_NODE":2.2989,"ARG_OF_PERICENTER":118.5628,"MEAN_ANOMALY":241.5799,"EPHEMERIS_TYPE":0,"CLASSIFICATION_TYPE":"U","NORAD_CAT_ID":54234,"ELEMENT_SET_NO":999,"REV_AT_EPOCH":17147,"BSTAR":7.0893074e-5,"MEAN_MOTION_DOT":1.06e-6,"MEAN_MOTION_DDOT":0},{"OBJECT_NAME":"METEOSAT-12 (MTG-I1)","OBJECT_ID":"2022-170C","EPOCH":"2026-03-02T20:57:35.579808","MEAN_MOTION":1.00274555,"ECCENTRICITY":0.00019227,"INCLINATION":0.7437,"RA_OF_ASC_NODE":28.9235,"ARG_OF_PERICENTER":281.4486,"MEAN_ANOMALY":164.3789,"EPHEMERIS_TYPE":0,"CLASSIFICATION_TYPE":"U","NORAD_CAT_ID":54743,"ELEMENT_SET_NO":999,"REV_AT_EPOCH":1191,"BSTAR":0,"MEAN_MOTION_DOT":-2.3e-7,"MEAN_MOTION_DDOT":0},{"OBJECT_NAME":"TIANMU-1 03","OBJECT_ID":"2023-039A","EPOCH":"2026-03-02T22:40:52.721760","MEAN_MOTION":15.43893106,"ECCENTRICITY":0.00039508,"INCLINATION":97.5164,"RA_OF_ASC_NODE":232.0376,"ARG_OF_PERICENTER":120.3562,"MEAN_ANOMALY":239.8077,"EPHEMERIS_TYPE":0,"CLASSIFICATION_TYPE":"U","NORAD_CAT_ID":55973,"ELEMENT_SET_NO":999,"REV_AT_EPOCH":16442,"BSTAR":0.00044870906,"MEAN_MOTION_DOT":0.00020318,"MEAN_MOTION_DDOT":0},{"OBJECT_NAME":"TIANMU-1 04","OBJECT_ID":"2023-039B","EPOCH":"2026-03-02T23:17:13.501824","MEAN_MOTION":15.44299484,"ECCENTRICITY":0.00046337,"INCLINATION":97.5096,"RA_OF_ASC_NODE":231.2257,"ARG_OF_PERICENTER":117.2839,"MEAN_ANOMALY":242.8882,"EPHEMERIS_TYPE":0,"CLASSIFICATION_TYPE":"U","NORAD_CAT_ID":55974,"ELEMENT_SET_NO":999,"REV_AT_EPOCH":16443,"BSTAR":0.00044469311,"MEAN_MOTION_DOT":0.00020417,"MEAN_MOTION_DDOT":0},{"OBJECT_NAME":"TIANMU-1 05","OBJECT_ID":"2023-039C","EPOCH":"2026-03-02T22:06:47.301984","MEAN_MOTION":15.43834741,"ECCENTRICITY":0.00037315,"INCLINATION":97.5143,"RA_OF_ASC_NODE":231.6668,"ARG_OF_PERICENTER":138.8403,"MEAN_ANOMALY":221.3127,"EPHEMERIS_TYPE":0,"CLASSIFICATION_TYPE":"U","NORAD_CAT_ID":55975,"ELEMENT_SET_NO":999,"REV_AT_EPOCH":16440,"BSTAR":0.00042534823,"MEAN_MOTION_DOT":0.00019215,"MEAN_MOTION_DDOT":0},{"OBJECT_NAME":"TIANMU-1 06","OBJECT_ID":"2023-039D","EPOCH":"2026-03-02T23:17:07.670688","MEAN_MOTION":15.44329158,"ECCENTRICITY":0.00040367,"INCLINATION":97.5153,"RA_OF_ASC_NODE":232.2516,"ARG_OF_PERICENTER":133.7889,"MEAN_ANOMALY":226.3693,"EPHEMERIS_TYPE":0,"CLASSIFICATION_TYPE":"U","NORAD_CAT_ID":55976,"ELEMENT_SET_NO":999,"REV_AT_EPOCH":16443,"BSTAR":0.00043086244,"MEAN_MOTION_DOT":0.00019795,"MEAN_MOTION_DDOT":0},{"OBJECT_NAME":"FENGYUN 3G","OBJECT_ID":"2023-055A","EPOCH":"2026-03-02T21:12:14.476032","MEAN_MOTION":15.54099829,"ECCENTRICITY":0.00106886,"INCLINATION":49.9932,"RA_OF_ASC_NODE":174.1446,"ARG_OF_PERICENTER":342.8456,"MEAN_ANOMALY":17.2149,"EPHEMERIS_TYPE":0,"CLASSIFICATION_TYPE":"U","NORAD_CAT_ID":56232,"ELEMENT_SET_NO":999,"REV_AT_EPOCH":16348,"BSTAR":0.00053456189,"MEAN_MOTION_DOT":0.00035159,"MEAN_MOTION_DDOT":0},{"OBJECT_NAME":"METEOR-M2 3","OBJECT_ID":"2023-091A","EPOCH":"2026-03-02T22:21:51.356160","MEAN_MOTION":14.24036855,"ECCENTRICITY":0.00050175,"INCLINATION":98.6229,"RA_OF_ASC_NODE":119.0191,"ARG_OF_PERICENTER":114.5694,"MEAN_ANOMALY":245.6008,"EPHEMERIS_TYPE":0,"CLASSIFICATION_TYPE":"U","NORAD_CAT_ID":57166,"ELEMENT_SET_NO":999,"REV_AT_EPOCH":13939,"BSTAR":3.4901846e-5,"MEAN_MOTION_DOT":3.7e-7,"MEAN_MOTION_DDOT":0},{"OBJECT_NAME":"TIANMU-1 07","OBJECT_ID":"2023-101A","EPOCH":"2026-03-02T21:50:17.336832","MEAN_MOTION":15.291832,"ECCENTRICITY":0.00047048,"INCLINATION":97.274,"RA_OF_ASC_NODE":115.0099,"ARG_OF_PERICENTER":147.2304,"MEAN_ANOMALY":212.9229,"EPHEMERIS_TYPE":0,"CLASSIFICATION_TYPE":"U","NORAD_CAT_ID":57399,"ELEMENT_SET_NO":999,"REV_AT_EPOCH":14540,"BSTAR":0.00031691477,"MEAN_MOTION_DOT":8.906e-5,"MEAN_MOTION_DDOT":0},{"OBJECT_NAME":"TIANMU-1 08","OBJECT_ID":"2023-101B","EPOCH":"2026-03-02T19:32:57.433632","MEAN_MOTION":15.29213455,"ECCENTRICITY":0.00062904,"INCLINATION":97.273,"RA_OF_ASC_NODE":114.6953,"ARG_OF_PERICENTER":145.3494,"MEAN_ANOMALY":214.8157,"EPHEMERIS_TYPE":0,"CLASSIFICATION_TYPE":"U","NORAD_CAT_ID":57400,"ELEMENT_SET_NO":999,"REV_AT_EPOCH":14538,"BSTAR":1.9083121e-5,"MEAN_MOTION_DOT":4.69e-6,"MEAN_MOTION_DDOT":0},{"OBJECT_NAME":"TIANMU-1 09","OBJECT_ID":"2023-101C","EPOCH":"2026-03-01T19:32:38.560416","MEAN_MOTION":15.29179768,"ECCENTRICITY":0.00051148,"INCLINATION":97.2691,"RA_OF_ASC_NODE":113.1975,"ARG_OF_PERICENTER":156.2312,"MEAN_ANOMALY":203.9165,"EPHEMERIS_TYPE":0,"CLASSIFICATION_TYPE":"U","NORAD_CAT_ID":57401,"ELEMENT_SET_NO":999,"REV_AT_EPOCH":14523,"BSTAR":2.6964044e-5,"MEAN_MOTION_DOT":6.91e-6,"MEAN_MOTION_DDOT":0}]
